[{"OBJECT_NAME":"STARLINK-34938","OBJECT_ID":"2025-179B","EPOCH":"2026-03-09T15:58:21.453312","MEAN_MOTION":15.05653933,"ECCENTRICITY":0.00014446,"INCLINATION":97.604,"RA_OF_ASC_NODE":112.923,"ARG_OF_PERICENTER":92.9274,"MEAN_ANOMALY":267.2118,"EPHEMERIS_TYPE":0,"CLASSIFICATION_TYPE":"U","NORAD_CAT_ID":65236,"ELEMENT_SET_NO":999,"REV_AT_EPOCH":3186,"BSTAR":0.00017641376,"MEAN_MOTION_DOT":2.486e-5,"MEAN_MOTION_DDOT":0},{"OBJECT_NAME":"COSMOS 2084","OBJECT_ID":"1990-055A","EPOCH":"2026-03-09T23:42:10.320480","MEAN_MOTION":15.05654003,"ECCENTRICITY":0.00170188,"INCLINATION":62.7921,"RA_OF_ASC_NODE":334.5624,"ARG_OF_PERICENTER":190.1371,"MEAN_ANOMALY":169.9389,"EPHEMERIS_TYPE":0,"CLASSIFICATION_TYPE":"U","NORAD_CAT_ID":20663,"ELEMENT_SET_NO":999,"REV_AT_EPOCH":93636,"BSTAR":0.00023056361,"MEAN_MOTION_DOT":3.154e-5,"MEAN_MOTION_DDOT":0}]
